CCSDS_OMM_VERS = 2.0
CREATION_DATE  = 
ORIGINATOR     = 

OBJECT_NAME    = UNKNOWN
OBJECT_ID      = 
CENTER_NAME    = EARTH
REF_FRAME      = TEME
TIME_SYSTEM    = UTC
MEAN_ELEMENT_THEORY = SGP/SGP4

EPOCH          = 2025-11-28T16:31:13.660320
MEAN_MOTION    = 2.99917789
ECCENTRICITY   = .6573909
INCLINATION    = 2.1014
RA_OF_ASC_NODE = 253.7071
ARG_OF_PERICENTER = 38.1804
MEAN_ANOMALY   = 272.4279

EPHEMERIS_TYPE = 0
CLASSIFICATION_TYPE = U
NORAD_CAT_ID   = 84932
ELEMENT_SET_NO = 999
REV_AT_EPOCH   = 13135
BSTAR          = .43859E-2
MEAN_MOTION_DOT = .575E-5
MEAN_MOTION_DDOT = 0

CCSDS_OMM_VERS = 2.0
CREATION_DATE  = 
ORIGINATOR     = 

OBJECT_NAME    = UNKNOWN
OBJECT_ID      = 
CENTER_NAME    = EARTH
REF_FRAME      = TEME
TIME_SYSTEM    = UTC
MEAN_ELEMENT_THEORY = SGP/SGP4

EPOCH          = 2025-11-28T18:10:37.054848
MEAN_MOTION    = 14.41037038
ECCENTRICITY   = .0046387
INCLINATION    = 98.4194
RA_OF_ASC_NODE = 304.0073
ARG_OF_PERICENTER = 203.2302
MEAN_ANOMALY   = 278.3182

EPHEMERIS_TYPE = 0
CLASSIFICATION_TYPE = U
NORAD_CAT_ID   = 85004
ELEMENT_SET_NO = 999
REV_AT_EPOCH   = 62888
BSTAR          = .35453E-3
MEAN_MOTION_DOT = .1111E-4
MEAN_MOTION_DDOT = 0

CCSDS_OMM_VERS = 2.0
CREATION_DATE  = 
ORIGINATOR     = 

OBJECT_NAME    = UNKNOWN
OBJECT_ID      = 
CENTER_NAME    = EARTH
REF_FRAME      = TEME
TIME_SYSTEM    = UTC
MEAN_ELEMENT_THEORY = SGP/SGP4

EPOCH          = 2025-11-22T02:39:37.947168
MEAN_MOTION    = 13.74985401
ECCENTRICITY   = .0027171
INCLINATION    = 99.2502
RA_OF_ASC_NODE = 188.6558
ARG_OF_PERICENTER = 309.9551
MEAN_ANOMALY   = 201.8772

EPHEMERIS_TYPE = 0
CLASSIFICATION_TYPE = U
NORAD_CAT_ID   = 85010
ELEMENT_SET_NO = 999
REV_AT_EPOCH   = 60108
BSTAR          = .14181E-2
MEAN_MOTION_DOT = .1314E-4
MEAN_MOTION_DDOT = 0

CCSDS_OMM_VERS = 2.0
CREATION_DATE  = 
ORIGINATOR     = 

OBJECT_NAME    = UNKNOWN
OBJECT_ID      = 
CENTER_NAME    = EARTH
REF_FRAME      = TEME
TIME_SYSTEM    = UTC
MEAN_ELEMENT_THEORY = SGP/SGP4

EPOCH          = 2025-11-28T13:00:27.896256
MEAN_MOTION    = 14.62261647
ECCENTRICITY   = .0016048
INCLINATION    = 74.0488
RA_OF_ASC_NODE = 65.3734
ARG_OF_PERICENTER = 331.8994
MEAN_ANOMALY   = 28.1305

EPHEMERIS_TYPE = 0
CLASSIFICATION_TYPE = U
NORAD_CAT_ID   = 85015
ELEMENT_SET_NO = 999
REV_AT_EPOCH   = 64053
BSTAR          = .12698E-3
MEAN_MOTION_DOT = .611E-5
MEAN_MOTION_DDOT = 0

CCSDS_OMM_VERS = 2.0
CREATION_DATE  = 
ORIGINATOR     = 

OBJECT_NAME    = UNKNOWN
OBJECT_ID      = 
CENTER_NAME    = EARTH
REF_FRAME      = TEME
TIME_SYSTEM    = UTC
MEAN_ELEMENT_THEORY = SGP/SGP4

EPOCH          = 2025-11-26T20:52:53.279040
MEAN_MOTION    = 14.73068860
ECCENTRICITY   = .0002956
INCLINATION    = 99.8529
RA_OF_ASC_NODE = 342.9965
ARG_OF_PERICENTER = 25.2967
MEAN_ANOMALY   = 97.9996

EPHEMERIS_TYPE = 0
CLASSIFICATION_TYPE = U
NORAD_CAT_ID   = 85023
ELEMENT_SET_NO = 999
REV_AT_EPOCH   = 62649
BSTAR          = .49223E-2
MEAN_MOTION_DOT = .3175E-3
MEAN_MOTION_DDOT = 0

CCSDS_OMM_VERS = 2.0
CREATION_DATE  = 
ORIGINATOR     = 

OBJECT_NAME    = UNKNOWN
OBJECT_ID      = 
CENTER_NAME    = EARTH
REF_FRAME      = TEME
TIME_SYSTEM    = UTC
MEAN_ELEMENT_THEORY = SGP/SGP4

EPOCH          = 2025-11-26T04:55:36.205824
MEAN_MOTION    = 13.74231280
ECCENTRICITY   = .0178962
INCLINATION    = 66.0392
RA_OF_ASC_NODE = 141.9981
ARG_OF_PERICENTER = 199.2869
MEAN_ANOMALY   = 160.1365

EPHEMERIS_TYPE = 0
CLASSIFICATION_TYPE = U
NORAD_CAT_ID   = 85027
ELEMENT_SET_NO = 999
REV_AT_EPOCH   = 60234
BSTAR          = .25935E-3
MEAN_MOTION_DOT = .196E-5
MEAN_MOTION_DDOT = 0

CCSDS_OMM_VERS = 2.0
CREATION_DATE  = 
ORIGINATOR     = 

OBJECT_NAME    = UNKNOWN
OBJECT_ID      = 
CENTER_NAME    = EARTH
REF_FRAME      = TEME
TIME_SYSTEM    = UTC
MEAN_ELEMENT_THEORY = SGP/SGP4

EPOCH          = 2025-11-24T02:24:42.273792
MEAN_MOTION    = 13.43387149
ECCENTRICITY   = .014116
INCLINATION    = 102.2214
RA_OF_ASC_NODE = 289.6270
ARG_OF_PERICENTER = 41.8857
MEAN_ANOMALY   = 319.2963

EPHEMERIS_TYPE = 0
CLASSIFICATION_TYPE = U
NORAD_CAT_ID   = 85047
ELEMENT_SET_NO = 999
REV_AT_EPOCH   = 57415
BSTAR          = .2908E-1
MEAN_MOTION_DOT = .17681E-3
MEAN_MOTION_DDOT = 0

CCSDS_OMM_VERS = 2.0
CREATION_DATE  = 
ORIGINATOR     = 

OBJECT_NAME    = UNKNOWN
OBJECT_ID      = 
CENTER_NAME    = EARTH
REF_FRAME      = TEME
TIME_SYSTEM    = UTC
MEAN_ELEMENT_THEORY = SGP/SGP4

EPOCH          = 2025-11-24T17:49:04.090080
MEAN_MOTION    = 12.76857922
ECCENTRICITY   = .0267338
INCLINATION    = 102.4002
RA_OF_ASC_NODE = 310.9148
ARG_OF_PERICENTER = 230.0305
MEAN_ANOMALY   = 311.1290

EPHEMERIS_TYPE = 0
CLASSIFICATION_TYPE = U
NORAD_CAT_ID   = 85061
ELEMENT_SET_NO = 999
REV_AT_EPOCH   = 55348
BSTAR          = .13278E-1
MEAN_MOTION_DOT = .3304E-4
MEAN_MOTION_DDOT = 0

CCSDS_OMM_VERS = 2.0
CREATION_DATE  = 
ORIGINATOR     = 

OBJECT_NAME    = UNKNOWN
OBJECT_ID      = 
CENTER_NAME    = EARTH
REF_FRAME      = TEME
TIME_SYSTEM    = UTC
MEAN_ELEMENT_THEORY = SGP/SGP4

EPOCH          = 2025-11-28T01:29:45.085632
MEAN_MOTION    = 14.40691556
ECCENTRICITY   = .001145
INCLINATION    = 74.0459
RA_OF_ASC_NODE = 249.9175
ARG_OF_PERICENTER = 125.8668
MEAN_ANOMALY   = 252.5670

EPHEMERIS_TYPE = 0
CLASSIFICATION_TYPE = U
NORAD_CAT_ID   = 85100
ELEMENT_SET_NO = 999
REV_AT_EPOCH   = 63123
BSTAR          = .14198E-3
MEAN_MOTION_DOT = .427E-5
MEAN_MOTION_DDOT = 0

CCSDS_OMM_VERS = 2.0
CREATION_DATE  = 
ORIGINATOR     = 

OBJECT_NAME    = UNKNOWN
OBJECT_ID      = 
CENTER_NAME    = EARTH
REF_FRAME      = TEME
TIME_SYSTEM    = UTC
MEAN_ELEMENT_THEORY = SGP/SGP4

EPOCH          = 2025-11-28T01:51:15.895584
MEAN_MOTION    = 13.72871091
ECCENTRICITY   = .0009814
INCLINATION    = 100.0565
RA_OF_ASC_NODE = 72.2164
ARG_OF_PERICENTER = 53.9249
MEAN_ANOMALY   = 122.0992

EPHEMERIS_TYPE = 0
CLASSIFICATION_TYPE = U
NORAD_CAT_ID   = 85106
ELEMENT_SET_NO = 999
REV_AT_EPOCH   = 60105
BSTAR          = .86534E-3
MEAN_MOTION_DOT = .749E-5
MEAN_MOTION_DDOT = 0

CCSDS_OMM_VERS = 2.0
CREATION_DATE  = 
ORIGINATOR     = 

OBJECT_NAME    = UNKNOWN
OBJECT_ID      = 
CENTER_NAME    = EARTH
REF_FRAME      = TEME
TIME_SYSTEM    = UTC
MEAN_ELEMENT_THEORY = SGP/SGP4

EPOCH          = 2025-11-28T08:26:23.951904
MEAN_MOTION    = 14.77624937
ECCENTRICITY   = .0006622
INCLINATION    = 98.4038
RA_OF_ASC_NODE = 195.7703
ARG_OF_PERICENTER = 184.1583
MEAN_ANOMALY   = 175.9572

EPHEMERIS_TYPE = 0
CLASSIFICATION_TYPE = U
NORAD_CAT_ID   = 85151
ELEMENT_SET_NO = 999
REV_AT_EPOCH   = 47740
BSTAR          = .33131E-2
MEAN_MOTION_DOT = .23724E-3
MEAN_MOTION_DDOT = 0

CCSDS_OMM_VERS = 2.0
CREATION_DATE  = 
ORIGINATOR     = 

OBJECT_NAME    = UNKNOWN
OBJECT_ID      = 
CENTER_NAME    = EARTH
REF_FRAME      = TEME
TIME_SYSTEM    = UTC
MEAN_ELEMENT_THEORY = SGP/SGP4

EPOCH          = 2025-11-28T08:09:15.208704
MEAN_MOTION    = 13.71499635
ECCENTRICITY   = .0216393
INCLINATION    = 99.8557
RA_OF_ASC_NODE = 112.9353
ARG_OF_PERICENTER = 351.2346
MEAN_ANOMALY   = 37.3757

EPHEMERIS_TYPE = 0
CLASSIFICATION_TYPE = U
NORAD_CAT_ID   = 85210
ELEMENT_SET_NO = 999
REV_AT_EPOCH   = 60018
BSTAR          = .83636E-3
MEAN_MOTION_DOT = .842E-5
MEAN_MOTION_DDOT = 0

