UNKNOWN                 
1 84932U          25332.68835255  .00000575  00000+0  43859-2 0  9990
2 84932   2.1014 253.7071 6573909  38.1804 272.4279  2.99917789131351
UNKNOWN                 
1 85004U          25332.75737332  .00001111  00000+0  35453-3 0  9995
2 85004  98.4194 304.0073 0046387 203.2302 278.3182 14.41037038628885
UNKNOWN                 
1 85010U          25326.11085587  .00001314  00000+0  14181-2 0  9992
2 85010  99.2502 188.6558 0027171 309.9551 201.8772 13.74985401601088
UNKNOWN                 
1 85015U          25332.54198954  .00000611  00000+0  12698-3 0  9995
2 85015  74.0488  65.3734 0016048 331.8994  28.1305 14.62261647640532
UNKNOWN                 
1 85023U          25330.87006110  .00031750  00000+0  49223-2 0  9991
2 85023  99.8529 342.9965 0002956  25.2967  97.9996 14.73068860626492
UNKNOWN                 
1 85027U          25330.20528016  .00000196  00000+0  25935-3 0  9991
2 85027  66.0392 141.9981 0178962 199.2869 160.1365 13.74231280602348
UNKNOWN                 
1 85047U          25328.10048928  .00017681  00000+0  29080-1 0  9998
2 85047 102.2214 289.6270 0141160  41.8857 319.2963 13.43387149574156
UNKNOWN                 
1 85061U          25328.74240845  .00003304  00000+0  13278-1 0  9995
2 85061 102.4002 310.9148 0267338 230.0305 311.1290 12.76857922553480
UNKNOWN                 
1 85100U          25332.06232738  .00000427  00000+0  14198-3 0  9998
2 85100  74.0459 249.9175 0011450 125.8668 252.5670 14.40691556631232
UNKNOWN                 
1 85106U          25332.07726731  .00000749  00000+0  86534-3 0  9996
2 85106 100.0565  72.2164 0009814  53.9249 122.0992 13.72871091601051
UNKNOWN                 
1 85151U          25332.35166611  .00023724  00000+0  33131-2 0  9994
2 85151  98.4038 195.7703 0006622 184.1583 175.9572 14.77624937477400
UNKNOWN                 
1 85210U          25332.33975936  .00000842  00000+0  83636-3 0  9998
2 85210  99.8557 112.9353 0216393 351.2346  37.3757 13.71499635600188
